STARLINK-31651          
1 59860U 24098C   26068.01851422  .00003644  00000+0  14194-3 0  9994
2 59860  42.9980 281.7759 0000876 256.3852 103.6902 15.27560792101741
TANSTAAFL-2             
1 62378U 24247B   26067.20753490  .00013897  00000+0  50872-3 0  9998
2 62378  44.9880 125.0934 0003072 298.8909  61.1666 15.28016845 67506
